{
 "type": "FeatureCollection",
 "name": "jer-demo-parcels-taraz",
 "features": [
  {
   "type": "Feature",
   "geometry": {
    "type": "MultiPolygon",
    "coordinates": [
     [
      [
       [
        71.3437039,
        42.9276509
       ],
       [
        71.343944,
        42.9274548
       ],
       [
        71.3443452,
        42.927735
       ],
       [
        71.3441307,
        42.9279377
       ],
       [
        71.3437039,
        42.9276509
       ]
      ]
     ]
    ]
   },
   "properties": {
    "cadastral_number": "06:097:901:001",
    "purpose": "IZHS",
    "owner_type": "LEASE",
    "address_ru": "г. Тараз, мкр. Самал, ул. Аль-Фараби, 1",
    "address_kk": "Тараз қ., Самал ш/а, Әл-Фараби к-сі, 1",
    "district": "Тараз, мкр. Самал",
    "lease_until": "2029-03-15",
    "seed_status": "UNDER_CHECK",
    "seed_violation_type": null,
    "seed_deadline_days": null,
    "seed_index": 0
   }
  },
  {
   "type": "Feature",
   "geometry": {
    "type": "MultiPolygon",
    "coordinates": [
     [
      [
       [
        71.344562,
        42.9275947
       ],
       [
        71.3441555,
        42.9273134
       ],
       [
        71.343944,
        42.9274548
       ],
       [
        71.3443452,
        42.927735
       ],
       [
        71.344562,
        42.9275947
       ]
      ]
     ]
    ]
   },
   "properties": {
    "cadastral_number": "06:097:901:002",
    "purpose": "IZHS",
    "owner_type": "LEASE",
    "address_ru": "г. Тараз, мкр. Самал, ул. Аль-Фараби, 3",
    "address_kk": "Тараз қ., Самал ш/а, Әл-Фараби к-сі, 3",
    "district": "Тараз, мкр. Самал",
    "lease_until": "2035-07-09",
    "seed_status": "OK",
    "seed_violation_type": null,
    "seed_deadline_days": null,
    "seed_index": 1
   }
  },
  {
   "type": "Feature",
   "geometry": {
    "type": "MultiPolygon",
    "coordinates": [
     [
      [
       [
        71.3447886,
        42.9274151
       ],
       [
        71.3443676,
        42.9271298
       ],
       [
        71.3441555,
        42.9273134
       ],
       [
        71.344562,
        42.9275947
       ],
       [
        71.3447886,
        42.9274151
       ]
      ]
     ]
    ]
   },
   "properties": {
    "cadastral_number": "06:097:901:003",
    "purpose": "IZHS",
    "owner_type": "PRIVATE",
    "address_ru": "г. Тараз, мкр. Самал, ул. Аль-Фараби, 5",
    "address_kk": "Тараз қ., Самал ш/а, Әл-Фараби к-сі, 5",
    "district": "Тараз, мкр. Самал",
    "lease_until": null,
    "seed_status": "OK",
    "seed_violation_type": null,
    "seed_deadline_days": null,
    "seed_index": 2
   }
  },
  {
   "type": "Feature",
   "geometry": {
    "type": "MultiPolygon",
    "coordinates": [
     [
      [
       [
        71.3449968,
        42.9272409
       ],
       [
        71.3445969,
        42.926973
       ],
       [
        71.3443676,
        42.9271298
       ],
       [
        71.3447886,
        42.9274151
       ],
       [
        71.3449968,
        42.9272409
       ]
      ]
     ]
    ]
   },
   "properties": {
    "cadastral_number": "06:097:901:004",
    "purpose": "IZHS",
    "owner_type": "LEASE",
    "address_ru": "г. Тараз, мкр. Самал, ул. Аль-Фараби, 7",
    "address_kk": "Тараз қ., Самал ш/а, Әл-Фараби к-сі, 7",
    "district": "Тараз, мкр. Самал",
    "lease_until": "2026-10-29",
    "seed_status": "IN_REMEDIATION",
    "seed_violation_type": "UNUSED",
    "seed_deadline_days": 30,
    "seed_index": 3
   }
  },
  {
   "type": "Feature",
   "geometry": {
    "type": "MultiPolygon",
    "coordinates": [
     [
      [
       [
        71.3452369,
        42.9270462
       ],
       [
        71.3448204,
        42.9267975
       ],
       [
        71.3445969,
        42.926973
       ],
       [
        71.3449968,
        42.9272409
       ],
       [
        71.3452369,
        42.9270462
       ]
      ]
     ]
    ]
   },
   "properties": {
    "cadastral_number": "06:097:901:005",
    "purpose": "IZHS",
    "owner_type": "PRIVATE",
    "address_ru": "г. Тараз, мкр. Самал, ул. Аль-Фараби, 9",
    "address_kk": "Тараз қ., Самал ш/а, Әл-Фараби к-сі, 9",
    "district": "Тараз, мкр. Самал",
    "lease_until": null,
    "seed_status": "OK",
    "seed_violation_type": null,
    "seed_deadline_days": null,
    "seed_index": 4
   }
  },
  {
   "type": "Feature",
   "geometry": {
    "type": "MultiPolygon",
    "coordinates": [
     [
      [
       [
        71.3454736,
        42.9268781
       ],
       [
        71.3450604,
        42.9265906
       ],
       [
        71.3448204,
        42.9267975
       ],
       [
        71.3452369,
        42.9270462
       ],
       [
        71.3454736,
        42.9268781
       ]
      ]
     ]
    ]
   },
   "properties": {
    "cadastral_number": "06:097:901:006",
    "purpose": "IZHS",
    "owner_type": "LEASE",
    "address_ru": "г. Тараз, мкр. Самал, ул. Аль-Фараби, 11",
    "address_kk": "Тараз қ., Самал ш/а, Әл-Фараби к-сі, 11",
    "district": "Тараз, мкр. Самал",
    "lease_until": "2035-04-28",
    "seed_status": "OK",
    "seed_violation_type": null,
    "seed_deadline_days": null,
    "seed_index": 5
   }
  },
  {
   "type": "Feature",
   "geometry": {
    "type": "MultiPolygon",
    "coordinates": [
     [
      [
       [
        71.3441307,
        42.9279377
       ],
       [
        71.3444711,
        42.928153
       ],
       [
        71.3446992,
        42.9279678
       ],
       [
        71.3443452,
        42.927735
       ],
       [
        71.3441307,
        42.9279377
       ]
      ]
     ]
    ]
   },
   "properties": {
    "cadastral_number": "06:097:901:007",
    "purpose": "IZHS",
    "owner_type": "LEASE",
    "address_ru": "г. Тараз, мкр. Самал, ул. Бектурова, 41",
    "address_kk": "Тараз қ., Самал ш/а, Бектұров к-сі, 41",
    "district": "Тараз, мкр. Самал",
    "lease_until": "2035-07-18",
    "seed_status": "OK",
    "seed_violation_type": null,
    "seed_deadline_days": null,
    "seed_index": 6
   }
  },
  {
   "type": "Feature",
   "geometry": {
    "type": "MultiPolygon",
    "coordinates": [
     [
      [
       [
        71.3443452,
        42.927735
       ],
       [
        71.3446992,
        42.9279678
       ],
       [
        71.3448754,
        42.9278106
       ],
       [
        71.344562,
        42.9275947
       ],
       [
        71.3443452,
        42.927735
       ]
      ]
     ]
    ]
   },
   "properties": {
    "cadastral_number": "06:097:901:008",
    "purpose": "IZHS",
    "owner_type": "PRIVATE",
    "address_ru": "г. Тараз, мкр. Самал, ул. Бектурова, 43",
    "address_kk": "Тараз қ., Самал ш/а, Бектұров к-сі, 43",
    "district": "Тараз, мкр. Самал",
    "lease_until": null,
    "seed_status": "OK",
    "seed_violation_type": null,
    "seed_deadline_days": null,
    "seed_index": 7
   }
  },
  {
   "type": "Feature",
   "geometry": {
    "type": "MultiPolygon",
    "coordinates": [
     [
      [
       [
        71.344562,
        42.9275947
       ],
       [
        71.3448754,
        42.9278106
       ],
       [
        71.3450925,
        42.9276342
       ],
       [
        71.3447886,
        42.9274151
       ],
       [
        71.344562,
        42.9275947
       ]
      ]
     ]
    ]
   },
   "properties": {
    "cadastral_number": "06:097:901:009",
    "purpose": "IZHS",
    "owner_type": "PRIVATE",
    "address_ru": "г. Тараз, мкр. Самал, ул. Бектурова, 45",
    "address_kk": "Тараз қ., Самал ш/а, Бектұров к-сі, 45",
    "district": "Тараз, мкр. Самал",
    "lease_until": null,
    "seed_status": "UNDER_CHECK",
    "seed_violation_type": null,
    "seed_deadline_days": null,
    "seed_index": 8
   }
  },
  {
   "type": "Feature",
   "geometry": {
    "type": "MultiPolygon",
    "coordinates": [
     [
      [
       [
        71.3447886,
        42.9274151
       ],
       [
        71.3450925,
        42.9276342
       ],
       [
        71.345304,
        42.927469
       ],
       [
        71.3449968,
        42.9272409
       ],
       [
        71.3447886,
        42.9274151
       ]
      ]
     ]
    ]
   },
   "properties": {
    "cadastral_number": "06:097:901:010",
    "purpose": "IZHS",
    "owner_type": "PRIVATE",
    "address_ru": "г. Тараз, мкр. Самал, ул. Бектурова, 47",
    "address_kk": "Тараз қ., Самал ш/а, Бектұров к-сі, 47",
    "district": "Тараз, мкр. Самал",
    "lease_until": null,
    "seed_status": "UNDER_CHECK",
    "seed_violation_type": null,
    "seed_deadline_days": null,
    "seed_index": 9
   }
  },
  {
   "type": "Feature",
   "geometry": {
    "type": "MultiPolygon",
    "coordinates": [
     [
      [
       [
        71.3449968,
        42.9272409
       ],
       [
        71.345304,
        42.927469
       ],
       [
        71.3455577,
        42.9272909
       ],
       [
        71.3452369,
        42.9270462
       ],
       [
        71.3449968,
        42.9272409
       ]
      ]
     ]
    ]
   },
   "properties": {
    "cadastral_number": "06:097:901:011",
    "purpose": "IZHS",
    "owner_type": "PRIVATE",
    "address_ru": "г. Тараз, мкр. Самал, ул. Бектурова, 49",
    "address_kk": "Тараз қ., Самал ш/а, Бектұров к-сі, 49",
    "district": "Тараз, мкр. Самал",
    "lease_until": null,
    "seed_status": "RESOLVED",
    "seed_violation_type": "DUMP",
    "seed_deadline_days": null,
    "seed_index": 10
   }
  },
  {
   "type": "Feature",
   "geometry": {
    "type": "MultiPolygon",
    "coordinates": [
     [
      [
       [
        71.3452369,
        42.9270462
       ],
       [
        71.3455577,
        42.9272909
       ],
       [
        71.3457879,
        42.9270996
       ],
       [
        71.3454736,
        42.9268781
       ],
       [
        71.3452369,
        42.9270462
       ]
      ]
     ]
    ]
   },
   "properties": {
    "cadastral_number": "06:097:901:012",
    "purpose": "IZHS",
    "owner_type": "PRIVATE",
    "address_ru": "г. Тараз, мкр. Самал, ул. Бектурова, 51",
    "address_kk": "Тараз қ., Самал ш/а, Бектұров к-сі, 51",
    "district": "Тараз, мкр. Самал",
    "lease_until": null,
    "seed_status": "OK",
    "seed_violation_type": null,
    "seed_deadline_days": null,
    "seed_index": 11
   }
  },
  {
   "type": "Feature",
   "geometry": {
    "type": "MultiPolygon",
    "coordinates": [
     [
      [
       [
        71.3444711,
        42.928153
       ],
       [
        71.3448063,
        42.928397
       ],
       [
        71.3450682,
        42.9282065
       ],
       [
        71.3446992,
        42.9279678
       ],
       [
        71.3444711,
        42.928153
       ]
      ]
     ]
    ]
   },
   "properties": {
    "cadastral_number": "06:097:901:013",
    "purpose": "IZHS",
    "owner_type": "PRIVATE",
    "address_ru": "г. Тараз, мкр. Самал, ул. Жамбыла, 81",
    "address_kk": "Тараз қ., Самал ш/а, Жамбыл к-сі, 81",
    "district": "Тараз, мкр. Самал",
    "lease_until": null,
    "seed_status": "OK",
    "seed_violation_type": null,
    "seed_deadline_days": null,
    "seed_index": 12
   }
  },
  {
   "type": "Feature",
   "geometry": {
    "type": "MultiPolygon",
    "coordinates": [
     [
      [
       [
        71.3446992,
        42.9279678
       ],
       [
        71.3450682,
        42.9282065
       ],
       [
        71.3452495,
        42.9280452
       ],
       [
        71.3448754,
        42.9278106
       ],
       [
        71.3446992,
        42.9279678
       ]
      ]
     ]
    ]
   },
   "properties": {
    "cadastral_number": "06:097:901:014",
    "purpose": "IZHS",
    "owner_type": "PRIVATE",
    "address_ru": "г. Тараз, мкр. Самал, ул. Жамбыла, 83",
    "address_kk": "Тараз қ., Самал ш/а, Жамбыл к-сі, 83",
    "district": "Тараз, мкр. Самал",
    "lease_until": null,
    "seed_status": "OK",
    "seed_violation_type": null,
    "seed_deadline_days": null,
    "seed_index": 13
   }
  },
  {
   "type": "Feature",
   "geometry": {
    "type": "MultiPolygon",
    "coordinates": [
     [
      [
       [
        71.3448754,
        42.9278106
       ],
       [
        71.3452495,
        42.9280452
       ],
       [
        71.3454672,
        42.9278739
       ],
       [
        71.3450925,
        42.9276342
       ],
       [
        71.3448754,
        42.9278106
       ]
      ]
     ]
    ]
   },
   "properties": {
    "cadastral_number": "06:097:901:015",
    "purpose": "IZHS",
    "owner_type": "PRIVATE",
    "address_ru": "г. Тараз, мкр. Самал, ул. Жамбыла, 85",
    "address_kk": "Тараз қ., Самал ш/а, Жамбыл к-сі, 85",
    "district": "Тараз, мкр. Самал",
    "lease_until": null,
    "seed_status": "UNDER_CHECK",
    "seed_violation_type": null,
    "seed_deadline_days": null,
    "seed_index": 14
   }
  },
  {
   "type": "Feature",
   "geometry": {
    "type": "MultiPolygon",
    "coordinates": [
     [
      [
       [
        71.3450925,
        42.9276342
       ],
       [
        71.3454672,
        42.9278739
       ],
       [
        71.3456931,
        42.9277293
       ],
       [
        71.345304,
        42.927469
       ],
       [
        71.3450925,
        42.9276342
       ]
      ]
     ]
    ]
   },
   "properties": {
    "cadastral_number": "06:097:901:016",
    "purpose": "IZHS",
    "owner_type": "PRIVATE",
    "address_ru": "г. Тараз, мкр. Самал, ул. Жамбыла, 87",
    "address_kk": "Тараз қ., Самал ш/а, Жамбыл к-сі, 87",
    "district": "Тараз, мкр. Самал",
    "lease_until": null,
    "seed_status": "OK",
    "seed_violation_type": null,
    "seed_deadline_days": null,
    "seed_index": 15
   }
  },
  {
   "type": "Feature",
   "geometry": {
    "type": "MultiPolygon",
    "coordinates": [
     [
      [
       [
        71.345304,
        42.927469
       ],
       [
        71.3456931,
        42.9277293
       ],
       [
        71.3459262,
        42.9275291
       ],
       [
        71.3455577,
        42.9272909
       ],
       [
        71.345304,
        42.927469
       ]
      ]
     ]
    ]
   },
   "properties": {
    "cadastral_number": "06:097:901:017",
    "purpose": "IZHS",
    "owner_type": "LEASE",
    "address_ru": "г. Тараз, мкр. Самал, ул. Жамбыла, 89",
    "address_kk": "Тараз қ., Самал ш/а, Жамбыл к-сі, 89",
    "district": "Тараз, мкр. Самал",
    "lease_until": "2030-06-21",
    "seed_status": "UNDER_CHECK",
    "seed_violation_type": null,
    "seed_deadline_days": null,
    "seed_index": 16
   }
  },
  {
   "type": "Feature",
   "geometry": {
    "type": "MultiPolygon",
    "coordinates": [
     [
      [
       [
        71.3455577,
        42.9272909
       ],
       [
        71.3459262,
        42.9275291
       ],
       [
        71.3461702,
        42.9273488
       ],
       [
        71.3457879,
        42.9270996
       ],
       [
        71.3455577,
        42.9272909
       ]
      ]
     ]
    ]
   },
   "properties": {
    "cadastral_number": "06:097:901:018",
    "purpose": "IZHS",
    "owner_type": "PRIVATE",
    "address_ru": "г. Тараз, мкр. Самал, ул. Жамбыла, 91",
    "address_kk": "Тараз қ., Самал ш/а, Жамбыл к-сі, 91",
    "district": "Тараз, мкр. Самал",
    "lease_until": null,
    "seed_status": "OK",
    "seed_violation_type": null,
    "seed_deadline_days": null,
    "seed_index": 17
   }
  },
  {
   "type": "Feature",
   "geometry": {
    "type": "MultiPolygon",
    "coordinates": [
     [
      [
       [
        71.3460284,
        42.9285734
       ],
       [
        71.34626,
        42.928394
       ],
       [
        71.3466943,
        42.928695
       ],
       [
        71.3464592,
        42.9288877
       ],
       [
        71.3460284,
        42.9285734
       ]
      ]
     ]
    ]
   },
   "properties": {
    "cadastral_number": "06:097:902:001",
    "purpose": "IZHS",
    "owner_type": "PRIVATE",
    "address_ru": "г. Тараз, мкр. Карасу, ул. Бектурова, 1",
    "address_kk": "Тараз қ., Қарасу ш/а, Бектұров к-сі, 1",
    "district": "Тараз, мкр. Карасу",
    "lease_until": null,
    "seed_status": "OK",
    "seed_violation_type": null,
    "seed_deadline_days": null,
    "seed_index": 18
   }
  },
  {
   "type": "Feature",
   "geometry": {
    "type": "MultiPolygon",
    "coordinates": [
     [
      [
       [
        71.3468708,
        42.9285548
       ],
       [
        71.3464339,
        42.9282491
       ],
       [
        71.34626,
        42.928394
       ],
       [
        71.3466943,
        42.928695
       ],
       [
        71.3468708,
        42.9285548
       ]
      ]
     ]
    ]
   },
   "properties": {
    "cadastral_number": "06:097:902:002",
    "purpose": "IZHS",
    "owner_type": "PRIVATE",
    "address_ru": "г. Тараз, мкр. Карасу, ул. Бектурова, 3",
    "address_kk": "Тараз қ., Қарасу ш/а, Бектұров к-сі, 3",
    "district": "Тараз, мкр. Карасу",
    "lease_until": null,
    "seed_status": "IN_REMEDIATION",
    "seed_violation_type": "UNUSED",
    "seed_deadline_days": -5,
    "seed_index": 19
   }
  },
  {
   "type": "Feature",
   "geometry": {
    "type": "MultiPolygon",
    "coordinates": [
     [
      [
       [
        71.3470842,
        42.9283931
       ],
       [
        71.3466278,
        42.9280975
       ],
       [
        71.3464339,
        42.9282491
       ],
       [
        71.3468708,
        42.9285548
       ],
       [
        71.3470842,
        42.9283931
       ]
      ]
     ]
    ]
   },
   "properties": {
    "cadastral_number": "06:097:902:003",
    "purpose": "LPH",
    "owner_type": "PRIVATE",
    "address_ru": "г. Тараз, мкр. Карасу, ул. Бектурова, 5",
    "address_kk": "Тараз қ., Қарасу ш/а, Бектұров к-сі, 5",
    "district": "Тараз, мкр. Карасу",
    "lease_until": null,
    "seed_status": "VIOLATION",
    "seed_violation_type": "DUMP",
    "seed_deadline_days": -3,
    "seed_index": 20
   }
  },
  {
   "type": "Feature",
   "geometry": {
    "type": "MultiPolygon",
    "coordinates": [
     [
      [
       [
        71.3472927,
        42.9282425
       ],
       [
        71.3468457,
        42.9279515
       ],
       [
        71.3466278,
        42.9280975
       ],
       [
        71.3470842,
        42.9283931
       ],
       [
        71.3472927,
        42.9282425
       ]
      ]
     ]
    ]
   },
   "properties": {
    "cadastral_number": "06:097:902:004",
    "purpose": "IZHS",
    "owner_type": "PRIVATE",
    "address_ru": "г. Тараз, мкр. Карасу, ул. Бектурова, 7",
    "address_kk": "Тараз қ., Қарасу ш/а, Бектұров к-сі, 7",
    "district": "Тараз, мкр. Карасу",
    "lease_until": null,
    "seed_status": "OK",
    "seed_violation_type": null,
    "seed_deadline_days": null,
    "seed_index": 21
   }
  },
  {
   "type": "Feature",
   "geometry": {
    "type": "MultiPolygon",
    "coordinates": [
     [
      [
       [
        71.3474627,
        42.9281035
       ],
       [
        71.3470206,
        42.9277873
       ],
       [
        71.3468457,
        42.9279515
       ],
       [
        71.3472927,
        42.9282425
       ],
       [
        71.3474627,
        42.9281035
       ]
      ]
     ]
    ]
   },
   "properties": {
    "cadastral_number": "06:097:902:005",
    "purpose": "IZHS",
    "owner_type": "PRIVATE",
    "address_ru": "г. Тараз, мкр. Карасу, ул. Бектурова, 9",
    "address_kk": "Тараз қ., Қарасу ш/а, Бектұров к-сі, 9",
    "district": "Тараз, мкр. Карасу",
    "lease_until": null,
    "seed_status": "VIOLATION",
    "seed_violation_type": "UNUSED",
    "seed_deadline_days": -9,
    "seed_index": 22
   }
  },
  {
   "type": "Feature",
   "geometry": {
    "type": "MultiPolygon",
    "coordinates": [
     [
      [
       [
        71.3476696,
        42.9279337
       ],
       [
        71.3472385,
        42.9276277
       ],
       [
        71.3470206,
        42.9277873
       ],
       [
        71.3474627,
        42.9281035
       ],
       [
        71.3476696,
        42.9279337
       ]
      ]
     ]
    ]
   },
   "properties": {
    "cadastral_number": "06:097:902:006",
    "purpose": "LPH",
    "owner_type": "LEASE",
    "address_ru": "г. Тараз, мкр. Карасу, ул. Бектурова, 11",
    "address_kk": "Тараз қ., Қарасу ш/а, Бектұров к-сі, 11",
    "district": "Тараз, мкр. Карасу",
    "lease_until": "2035-03-22",
    "seed_status": "OK",
    "seed_violation_type": null,
    "seed_deadline_days": null,
    "seed_index": 23
   }
  },
  {
   "type": "Feature",
   "geometry": {
    "type": "MultiPolygon",
    "coordinates": [
     [
      [
       [
        71.3478938,
        42.9277618
       ],
       [
        71.347435,
        42.9274551
       ],
       [
        71.3472385,
        42.9276277
       ],
       [
        71.3476696,
        42.9279337
       ],
       [
        71.3478938,
        42.9277618
       ]
      ]
     ]
    ]
   },
   "properties": {
    "cadastral_number": "06:097:902:007",
    "purpose": "IZHS",
    "owner_type": "PRIVATE",
    "address_ru": "г. Тараз, мкр. Карасу, ул. Бектурова, 13",
    "address_kk": "Тараз қ., Қарасу ш/а, Бектұров к-сі, 13",
    "district": "Тараз, мкр. Карасу",
    "lease_until": null,
    "seed_status": "OK",
    "seed_violation_type": null,
    "seed_deadline_days": null,
    "seed_index": 24
   }
  },
  {
   "type": "Feature",
   "geometry": {
    "type": "MultiPolygon",
    "coordinates": [
     [
      [
       [
        71.3464592,
        42.9288877
       ],
       [
        71.3468419,
        42.9291489
       ],
       [
        71.3470879,
        42.9289763
       ],
       [
        71.3466943,
        42.928695
       ],
       [
        71.3464592,
        42.9288877
       ]
      ]
     ]
    ]
   },
   "properties": {
    "cadastral_number": "06:097:902:008",
    "purpose": "IZHS",
    "owner_type": "PRIVATE",
    "address_ru": "г. Тараз, мкр. Карасу, ул. Жамбыла, 41",
    "address_kk": "Тараз қ., Қарасу ш/а, Жамбыл к-сі, 41",
    "district": "Тараз, мкр. Карасу",
    "lease_until": null,
    "seed_status": "OK",
    "seed_violation_type": null,
    "seed_deadline_days": null,
    "seed_index": 25
   }
  },
  {
   "type": "Feature",
   "geometry": {
    "type": "MultiPolygon",
    "coordinates": [
     [
      [
       [
        71.3466943,
        42.928695
       ],
       [
        71.3470879,
        42.9289763
       ],
       [
        71.3472758,
        42.9288014
       ],
       [
        71.3468708,
        42.9285548
       ],
       [
        71.3466943,
        42.928695
       ]
      ]
     ]
    ]
   },
   "properties": {
    "cadastral_number": "06:097:902:009",
    "purpose": "LPH",
    "owner_type": "PRIVATE",
    "address_ru": "г. Тараз, мкр. Карасу, ул. Жамбыла, 43",
    "address_kk": "Тараз қ., Қарасу ш/а, Жамбыл к-сі, 43",
    "district": "Тараз, мкр. Карасу",
    "lease_until": null,
    "seed_status": "OK",
    "seed_violation_type": null,
    "seed_deadline_days": null,
    "seed_index": 26
   }
  },
  {
   "type": "Feature",
   "geometry": {
    "type": "MultiPolygon",
    "coordinates": [
     [
      [
       [
        71.3468708,
        42.9285548
       ],
       [
        71.3472758,
        42.9288014
       ],
       [
        71.3474501,
        42.9286612
       ],
       [
        71.3470842,
        42.9283931
       ],
       [
        71.3468708,
        42.9285548
       ]
      ]
     ]
    ]
   },
   "properties": {
    "cadastral_number": "06:097:902:010",
    "purpose": "IZHS",
    "owner_type": "LEASE",
    "address_ru": "г. Тараз, мкр. Карасу, ул. Жамбыла, 45",
    "address_kk": "Тараз қ., Қарасу ш/а, Жамбыл к-сі, 45",
    "district": "Тараз, мкр. Карасу",
    "lease_until": "2032-07-24",
    "seed_status": "OK",
    "seed_violation_type": null,
    "seed_deadline_days": null,
    "seed_index": 27
   }
  },
  {
   "type": "Feature",
   "geometry": {
    "type": "MultiPolygon",
    "coordinates": [
     [
      [
       [
        71.3470842,
        42.9283931
       ],
       [
        71.3474501,
        42.9286612
       ],
       [
        71.3476793,
        42.9285086
       ],
       [
        71.3472927,
        42.9282425
       ],
       [
        71.3470842,
        42.9283931
       ]
      ]
     ]
    ]
   },
   "properties": {
    "cadastral_number": "06:097:902:011",
    "purpose": "IZHS",
    "owner_type": "PRIVATE",
    "address_ru": "г. Тараз, мкр. Карасу, ул. Жамбыла, 47",
    "address_kk": "Тараз қ., Қарасу ш/а, Жамбыл к-сі, 47",
    "district": "Тараз, мкр. Карасу",
    "lease_until": null,
    "seed_status": "OK",
    "seed_violation_type": null,
    "seed_deadline_days": null,
    "seed_index": 28
   }
  },
  {
   "type": "Feature",
   "geometry": {
    "type": "MultiPolygon",
    "coordinates": [
     [
      [
       [
        71.3472927,
        42.9282425
       ],
       [
        71.3476793,
        42.9285086
       ],
       [
        71.3478555,
        42.9283611
       ],
       [
        71.3474627,
        42.9281035
       ],
       [
        71.3472927,
        42.9282425
       ]
      ]
     ]
    ]
   },
   "properties": {
    "cadastral_number": "06:097:902:012",
    "purpose": "LPH",
    "owner_type": "PRIVATE",
    "address_ru": "г. Тараз, мкр. Карасу, ул. Жамбыла, 49",
    "address_kk": "Тараз қ., Қарасу ш/а, Жамбыл к-сі, 49",
    "district": "Тараз, мкр. Карасу",
    "lease_until": null,
    "seed_status": "UNDER_CHECK",
    "seed_violation_type": null,
    "seed_deadline_days": null,
    "seed_index": 29
   }
  },
  {
   "type": "Feature",
   "geometry": {
    "type": "MultiPolygon",
    "coordinates": [
     [
      [
       [
        71.3474627,
        42.9281035
       ],
       [
        71.3478555,
        42.9283611
       ],
       [
        71.3480452,
        42.9281929
       ],
       [
        71.3476696,
        42.9279337
       ],
       [
        71.3474627,
        42.9281035
       ]
      ]
     ]
    ]
   },
   "properties": {
    "cadastral_number": "06:097:902:013",
    "purpose": "IZHS",
    "owner_type": "LEASE",
    "address_ru": "г. Тараз, мкр. Карасу, ул. Жамбыла, 51",
    "address_kk": "Тараз қ., Қарасу ш/а, Жамбыл к-сі, 51",
    "district": "Тараз, мкр. Карасу",
    "lease_until": "2029-06-23",
    "seed_status": "OK",
    "seed_violation_type": null,
    "seed_deadline_days": null,
    "seed_index": 30
   }
  },
  {
   "type": "Feature",
   "geometry": {
    "type": "MultiPolygon",
    "coordinates": [
     [
      [
       [
        71.3476696,
        42.9279337
       ],
       [
        71.3480452,
        42.9281929
       ],
       [
        71.3482913,
        42.928015
       ],
       [
        71.3478938,
        42.9277618
       ],
       [
        71.3476696,
        42.9279337
       ]
      ]
     ]
    ]
   },
   "properties": {
    "cadastral_number": "06:097:902:014",
    "purpose": "IZHS",
    "owner_type": "PRIVATE",
    "address_ru": "г. Тараз, мкр. Карасу, ул. Жамбыла, 53",
    "address_kk": "Тараз қ., Қарасу ш/а, Жамбыл к-сі, 53",
    "district": "Тараз, мкр. Карасу",
    "lease_until": null,
    "seed_status": "OK",
    "seed_violation_type": null,
    "seed_deadline_days": null,
    "seed_index": 31
   }
  },
  {
   "type": "Feature",
   "geometry": {
    "type": "MultiPolygon",
    "coordinates": [
     [
      [
       [
        71.4584088,
        42.9151521
       ],
       [
        71.4599383,
        42.9154153
       ],
       [
        71.4597343,
        42.9159801
       ],
       [
        71.4582107,
        42.9156286
       ],
       [
        71.4584088,
        42.9151521
       ]
      ]
     ]
    ]
   },
   "properties": {
    "cadastral_number": "06:097:903:001",
    "purpose": "COMMERCIAL",
    "owner_type": "PRIVATE",
    "address_ru": "г. Тараз, Объездная трасса, ул. Жамбыла, 1",
    "address_kk": "Тараз қ., айналма жол, Жамбыл к-сі, 1",
    "district": "Тараз, Объездная трасса",
    "lease_until": null,
    "seed_status": "VIOLATION",
    "seed_violation_type": "DUMP",
    "seed_deadline_days": 3,
    "seed_index": 32
   }
  },
  {
   "type": "Feature",
   "geometry": {
    "type": "MultiPolygon",
    "coordinates": [
     [
      [
       [
        71.4610335,
        42.9162771
       ],
       [
        71.4612959,
        42.915767
       ],
       [
        71.4599383,
        42.9154153
       ],
       [
        71.4597343,
        42.9159801
       ],
       [
        71.4610335,
        42.9162771
       ]
      ]
     ]
    ]
   },
   "properties": {
    "cadastral_number": "06:097:903:002",
    "purpose": "INDUSTRIAL",
    "owner_type": "LEASE",
    "address_ru": "г. Тараз, Объездная трасса, ул. Жамбыла, 3",
    "address_kk": "Тараз қ., айналма жол, Жамбыл к-сі, 3",
    "district": "Тараз, Объездная трасса",
    "lease_until": "2027-10-07",
    "seed_status": "OK",
    "seed_violation_type": null,
    "seed_deadline_days": null,
    "seed_index": 33
   }
  },
  {
   "type": "Feature",
   "geometry": {
    "type": "MultiPolygon",
    "coordinates": [
     [
      [
       [
        71.4618937,
        42.9164082
       ],
       [
        71.4620609,
        42.9158931
       ],
       [
        71.4612959,
        42.915767
       ],
       [
        71.4610335,
        42.9162771
       ],
       [
        71.4618937,
        42.9164082
       ]
      ]
     ]
    ]
   },
   "properties": {
    "cadastral_number": "06:097:903:003",
    "purpose": "COMMERCIAL",
    "owner_type": "LEASE",
    "address_ru": "г. Тараз, Объездная трасса, ул. Жамбыла, 5",
    "address_kk": "Тараз қ., айналма жол, Жамбыл к-сі, 5",
    "district": "Тараз, Объездная трасса",
    "lease_until": "2030-06-04",
    "seed_status": "IN_REMEDIATION",
    "seed_violation_type": "MISUSE",
    "seed_deadline_days": 16,
    "seed_index": 34
   }
  },
  {
   "type": "Feature",
   "geometry": {
    "type": "MultiPolygon",
    "coordinates": [
     [
      [
       [
        71.4630237,
        42.9166843
       ],
       [
        71.4631849,
        42.9161497
       ],
       [
        71.4620609,
        42.9158931
       ],
       [
        71.4618937,
        42.9164082
       ],
       [
        71.4630237,
        42.9166843
       ]
      ]
     ]
    ]
   },
   "properties": {
    "cadastral_number": "06:097:903:004",
    "purpose": "COMMERCIAL",
    "owner_type": "PRIVATE",
    "address_ru": "г. Тараз, Объездная трасса, ул. Жамбыла, 7",
    "address_kk": "Тараз қ., айналма жол, Жамбыл к-сі, 7",
    "district": "Тараз, Объездная трасса",
    "lease_until": null,
    "seed_status": "OK",
    "seed_violation_type": null,
    "seed_deadline_days": null,
    "seed_index": 35
   }
  },
  {
   "type": "Feature",
   "geometry": {
    "type": "MultiPolygon",
    "coordinates": [
     [
      [
       [
        71.4582107,
        42.9156286
       ],
       [
        71.4577919,
        42.9165509
       ],
       [
        71.4594202,
        42.9169181
       ],
       [
        71.4597343,
        42.9159801
       ],
       [
        71.4582107,
        42.9156286
       ]
      ]
     ]
    ]
   },
   "properties": {
    "cadastral_number": "06:097:903:005",
    "purpose": "INDUSTRIAL",
    "owner_type": "LEASE",
    "address_ru": "г. Тараз, Объездная трасса, ул. Жибек жолы, 41",
    "address_kk": "Тараз қ., айналма жол, Жібек жолы к-сі, 41",
    "district": "Тараз, Объездная трасса",
    "lease_until": "2033-05-07",
    "seed_status": "VIOLATION",
    "seed_violation_type": "UNUSED",
    "seed_deadline_days": 21,
    "seed_index": 36
   }
  },
  {
   "type": "Feature",
   "geometry": {
    "type": "MultiPolygon",
    "coordinates": [
     [
      [
       [
        71.4597343,
        42.9159801
       ],
       [
        71.4594202,
        42.9169181
       ],
       [
        71.460699,
        42.9171768
       ],
       [
        71.4610335,
        42.9162771
       ],
       [
        71.4597343,
        42.9159801
       ]
      ]
     ]
    ]
   },
   "properties": {
    "cadastral_number": "06:097:903:006",
    "purpose": "COMMERCIAL",
    "owner_type": "PRIVATE",
    "address_ru": "г. Тараз, Объездная трасса, ул. Жибек жолы, 43",
    "address_kk": "Тараз қ., айналма жол, Жібек жолы к-сі, 43",
    "district": "Тараз, Объездная трасса",
    "lease_until": null,
    "seed_status": "VIOLATION",
    "seed_violation_type": "SELF_SEIZURE",
    "seed_deadline_days": 12,
    "seed_index": 37
   }
  },
  {
   "type": "Feature",
   "geometry": {
    "type": "MultiPolygon",
    "coordinates": [
     [
      [
       [
        71.4610335,
        42.9162771
       ],
       [
        71.460699,
        42.9171768
       ],
       [
        71.4615043,
        42.9173239
       ],
       [
        71.4618937,
        42.9164082
       ],
       [
        71.4610335,
        42.9162771
       ]
      ]
     ]
    ]
   },
   "properties": {
    "cadastral_number": "06:097:903:007",
    "purpose": "COMMERCIAL",
    "owner_type": "LEASE",
    "address_ru": "г. Тараз, Объездная трасса, ул. Жибек жолы, 45",
    "address_kk": "Тараз қ., айналма жол, Жібек жолы к-сі, 45",
    "district": "Тараз, Объездная трасса",
    "lease_until": "2033-01-05",
    "seed_status": "OK",
    "seed_violation_type": null,
    "seed_deadline_days": null,
    "seed_index": 38
   }
  },
  {
   "type": "Feature",
   "geometry": {
    "type": "MultiPolygon",
    "coordinates": [
     [
      [
       [
        71.4618937,
        42.9164082
       ],
       [
        71.4615043,
        42.9173239
       ],
       [
        71.462648,
        42.9175913
       ],
       [
        71.4630237,
        42.9166843
       ],
       [
        71.4618937,
        42.9164082
       ]
      ]
     ]
    ]
   },
   "properties": {
    "cadastral_number": "06:097:903:008",
    "purpose": "INDUSTRIAL",
    "owner_type": "LEASE",
    "address_ru": "г. Тараз, Объездная трасса, ул. Жибек жолы, 47",
    "address_kk": "Тараз қ., айналма жол, Жібек жолы к-сі, 47",
    "district": "Тараз, Объездная трасса",
    "lease_until": "2027-01-17",
    "seed_status": "OK",
    "seed_violation_type": null,
    "seed_deadline_days": null,
    "seed_index": 39
   }
  },
  {
   "type": "Feature",
   "geometry": {
    "type": "MultiPolygon",
    "coordinates": [
     [
      [
       [
        71.2752843,
        42.9769354
       ],
       [
        71.2757673,
        42.9741249
       ],
       [
        71.2714811,
        42.9738613
       ],
       [
        71.2713201,
        42.9756129
       ],
       [
        71.2725948,
        42.9756945
       ],
       [
        71.2724801,
        42.9766537
       ],
       [
        71.2752843,
        42.9769354
       ]
      ]
     ]
    ]
   },
   "properties": {
    "cadastral_number": "06:097:904:001",
    "purpose": "AGRICULTURE",
    "owner_type": "LEASE",
    "address_ru": "Байзакский район, окрестности с. Сарыкемер, поле № 1",
    "address_kk": "Байзақ ауданы, Сарыкемер а. маңы, № 1 алқап",
    "district": "Байзакский район",
    "lease_until": "2026-07-26",
    "seed_status": "IN_REMEDIATION",
    "seed_violation_type": "DUMP",
    "seed_deadline_days": 8,
    "seed_index": 40
   }
  },
  {
   "type": "Feature",
   "geometry": {
    "type": "MultiPolygon",
    "coordinates": [
     [
      [
       [
        71.2791769,
        42.9773226
       ],
       [
        71.2792868,
        42.974676
       ],
       [
        71.277049,
        42.9743256
       ],
       [
        71.2769497,
        42.975156
       ],
       [
        71.2756049,
        42.9750699
       ],
       [
        71.2752843,
        42.9769354
       ],
       [
        71.2791769,
        42.9773226
       ]
      ]
     ]
    ]
   },
   "properties": {
    "cadastral_number": "06:097:904:002",
    "purpose": "AGRICULTURE",
    "owner_type": "LEASE",
    "address_ru": "Байзакский район, окрестности с. Сарыкемер, поле № 2",
    "address_kk": "Байзақ ауданы, Сарыкемер а. маңы, № 2 алқап",
    "district": "Байзакский район",
    "lease_until": "2035-08-05",
    "seed_status": "VIOLATION",
    "seed_violation_type": "MISUSE",
    "seed_deadline_days": 5,
    "seed_index": 41
   }
  },
  {
   "type": "Feature",
   "geometry": {
    "type": "MultiPolygon",
    "coordinates": [
     [
      [
       [
        71.282992,
        42.9747041
       ],
       [
        71.2792868,
        42.974676
       ],
       [
        71.2792022,
        42.9767135
       ],
       [
        71.2800777,
        42.9767696
       ],
       [
        71.280002,
        42.9774024
       ],
       [
        71.2827013,
        42.9776634
       ],
       [
        71.282992,
        42.9747041
       ]
      ]
     ]
    ]
   },
   "properties": {
    "cadastral_number": "06:097:904:003",
    "purpose": "AGRICULTURE",
    "owner_type": "STATE",
    "address_ru": "Байзакский район, окрестности с. Сарыкемер, поле № 3",
    "address_kk": "Байзақ ауданы, Сарыкемер а. маңы, № 3 алқап",
    "district": "Байзакский район",
    "lease_until": null,
    "seed_status": "RETURNED_TO_STATE",
    "seed_violation_type": "UNUSED",
    "seed_deadline_days": null,
    "seed_index": 42
   }
  },
  {
   "type": "Feature",
   "geometry": {
    "type": "MultiPolygon",
    "coordinates": [
     [
      [
       [
        71.287576,
        42.9777128
       ],
       [
        71.2883006,
        42.9751951
       ],
       [
        71.282992,
        42.9747041
       ],
       [
        71.2827013,
        42.9776634
       ],
       [
        71.287576,
        42.9777128
       ]
      ]
     ]
    ]
   },
   "properties": {
    "cadastral_number": "06:097:904:004",
    "purpose": "AGRICULTURE",
    "owner_type": "STATE",
    "address_ru": "Байзакский район, окрестности с. Сарыкемер, поле № 4",
    "address_kk": "Байзақ ауданы, Сарыкемер а. маңы, № 4 алқап",
    "district": "Байзакский район",
    "lease_until": null,
    "seed_status": "RETURNED_TO_STATE",
    "seed_violation_type": "SELF_SEIZURE",
    "seed_deadline_days": null,
    "seed_index": 43
   }
  },
  {
   "type": "Feature",
   "geometry": {
    "type": "MultiPolygon",
    "coordinates": [
     [
      [
       [
        71.271236,
        42.9765288
       ],
       [
        71.2707572,
        42.9813013
       ],
       [
        71.2746561,
        42.9812476
       ],
       [
        71.2752843,
        42.9769354
       ],
       [
        71.271236,
        42.9765288
       ]
      ]
     ]
    ]
   },
   "properties": {
    "cadastral_number": "06:097:904:005",
    "purpose": "AGRICULTURE",
    "owner_type": "LEASE",
    "address_ru": "Байзакский район, окрестности с. Сарыкемер, поле № 5",
    "address_kk": "Байзақ ауданы, Сарыкемер а. маңы, № 5 алқап",
    "district": "Байзакский район",
    "lease_until": "2034-08-13",
    "seed_status": "OK",
    "seed_violation_type": null,
    "seed_deadline_days": null,
    "seed_index": 44
   }
  },
  {
   "type": "Feature",
   "geometry": {
    "type": "MultiPolygon",
    "coordinates": [
     [
      [
       [
        71.2752843,
        42.9769354
       ],
       [
        71.2746561,
        42.9812476
       ],
       [
        71.2786531,
        42.9816081
       ],
       [
        71.2791769,
        42.9773226
       ],
       [
        71.2752843,
        42.9769354
       ]
      ]
     ]
    ]
   },
   "properties": {
    "cadastral_number": "06:097:904:006",
    "purpose": "AGRICULTURE",
    "owner_type": "PRIVATE",
    "address_ru": "Байзакский район, окрестности с. Сарыкемер, поле № 6",
    "address_kk": "Байзақ ауданы, Сарыкемер а. маңы, № 6 алқап",
    "district": "Байзакский район",
    "lease_until": null,
    "seed_status": "RESOLVED",
    "seed_violation_type": "MISUSE",
    "seed_deadline_days": null,
    "seed_index": 45
   }
  },
  {
   "type": "Feature",
   "geometry": {
    "type": "MultiPolygon",
    "coordinates": [
     [
      [
       [
        71.2791769,
        42.9773226
       ],
       [
        71.2786531,
        42.9816081
       ],
       [
        71.2819698,
        42.9817427
       ],
       [
        71.2827013,
        42.9776634
       ],
       [
        71.280002,
        42.9774024
       ],
       [
        71.28000200177972,
        42.97740238512272
       ],
       [
        71.2791769,
        42.9773226
       ]
      ]
     ]
    ]
   },
   "properties": {
    "cadastral_number": "06:097:904:007",
    "purpose": "AGRICULTURE",
    "owner_type": "LEASE",
    "address_ru": "Байзакский район, окрестности с. Сарыкемер, поле № 7",
    "address_kk": "Байзақ ауданы, Сарыкемер а. маңы, № 7 алқап",
    "district": "Байзакский район",
    "lease_until": "2028-10-04",
    "seed_status": "OK",
    "seed_violation_type": null,
    "seed_deadline_days": null,
    "seed_index": 46
   }
  },
  {
   "type": "Feature",
   "geometry": {
    "type": "MultiPolygon",
    "coordinates": [
     [
      [
       [
        71.2827013,
        42.9776634
       ],
       [
        71.2819698,
        42.9817427
       ],
       [
        71.2875501,
        42.9821872
       ],
       [
        71.287576,
        42.9777128
       ],
       [
        71.2827013,
        42.9776634
       ]
      ]
     ]
    ]
   },
   "properties": {
    "cadastral_number": "06:097:904:008",
    "purpose": "AGRICULTURE",
    "owner_type": "LEASE",
    "address_ru": "Байзакский район, окрестности с. Сарыкемер, поле № 8",
    "address_kk": "Байзақ ауданы, Сарыкемер а. маңы, № 8 алқап",
    "district": "Байзакский район",
    "lease_until": "2027-05-02",
    "seed_status": "OK",
    "seed_violation_type": null,
    "seed_deadline_days": null,
    "seed_index": 47
   }
  },
  {
   "type": "Feature",
   "geometry": {
    "type": "MultiPolygon",
    "coordinates": [
     [
      [
       [
        71.2705784,
        42.9854912
       ],
       [
        71.2739762,
        42.9859115
       ],
       [
        71.274512,
        42.9822359
       ],
       [
        71.2731847,
        42.982151
       ],
       [
        71.27329039880986,
        42.98126640996023
       ],
       [
        71.2707572,
        42.9813013
       ],
       [
        71.2705784,
        42.9854912
       ]
      ]
     ]
    ]
   },
   "properties": {
    "cadastral_number": "06:097:904:009",
    "purpose": "AGRICULTURE",
    "owner_type": "PRIVATE",
    "address_ru": "Байзакский район, окрестности с. Сарыкемер, поле № 9",
    "address_kk": "Байзақ ауданы, Сарыкемер а. маңы, № 9 алқап",
    "district": "Байзакский район",
    "lease_until": null,
    "seed_status": "OK",
    "seed_violation_type": null,
    "seed_deadline_days": null,
    "seed_index": 48
   }
  },
  {
   "type": "Feature",
   "geometry": {
    "type": "MultiPolygon",
    "coordinates": [
     [
      [
       [
        71.2746561,
        42.9812476
       ],
       [
        71.2739762,
        42.9859115
       ],
       [
        71.2783459,
        42.9861775
       ],
       [
        71.2786531,
        42.9816081
       ],
       [
        71.2746561,
        42.9812476
       ]
      ]
     ]
    ]
   },
   "properties": {
    "cadastral_number": "06:097:904:010",
    "purpose": "AGRICULTURE",
    "owner_type": "PRIVATE",
    "address_ru": "Байзакский район, окрестности с. Сарыкемер, поле № 10",
    "address_kk": "Байзақ ауданы, Сарыкемер а. маңы, № 10 алқап",
    "district": "Байзакский район",
    "lease_until": null,
    "seed_status": "UNDER_CHECK",
    "seed_violation_type": null,
    "seed_deadline_days": null,
    "seed_index": 49
   }
  },
  {
   "type": "Feature",
   "geometry": {
    "type": "MultiPolygon",
    "coordinates": [
     [
      [
       [
        71.2786531,
        42.9816081
       ],
       [
        71.2783459,
        42.9861775
       ],
       [
        71.2818193,
        42.9863455
       ],
       [
        71.2819698,
        42.9817427
       ],
       [
        71.2786531,
        42.9816081
       ]
      ]
     ]
    ]
   },
   "properties": {
    "cadastral_number": "06:097:904:011",
    "purpose": "AGRICULTURE",
    "owner_type": "LEASE",
    "address_ru": "Байзакский район, окрестности с. Сарыкемер, поле № 11",
    "address_kk": "Байзақ ауданы, Сарыкемер а. маңы, № 11 алқап",
    "district": "Байзакский район",
    "lease_until": "2033-12-27",
    "seed_status": "OK",
    "seed_violation_type": null,
    "seed_deadline_days": null,
    "seed_index": 50
   }
  },
  {
   "type": "Feature",
   "geometry": {
    "type": "MultiPolygon",
    "coordinates": [
     [
      [
       [
        71.2819698,
        42.9817427
       ],
       [
        71.2818193,
        42.9863455
       ],
       [
        71.2865689,
        42.9864856
       ],
       [
        71.2875501,
        42.9821872
       ],
       [
        71.2819698,
        42.9817427
       ]
      ]
     ]
    ]
   },
   "properties": {
    "cadastral_number": "06:097:904:012",
    "purpose": "AGRICULTURE",
    "owner_type": "STATE",
    "address_ru": "Байзакский район, окрестности с. Сарыкемер, поле № 12",
    "address_kk": "Байзақ ауданы, Сарыкемер а. маңы, № 12 алқап",
    "district": "Байзакский район",
    "lease_until": null,
    "seed_status": "RETURNED_TO_STATE",
    "seed_violation_type": "UNUSED",
    "seed_deadline_days": null,
    "seed_index": 51
   }
  },
  {
   "type": "Feature",
   "geometry": {
    "type": "MultiPolygon",
    "coordinates": [
     [
      [
       [
        71.3107935,
        42.9622571
       ],
       [
        71.3144431,
        42.9605055
       ],
       [
        71.3168922,
        42.9628631
       ],
       [
        71.3135445,
        42.9645368
       ],
       [
        71.3107935,
        42.9622571
       ]
      ]
     ]
    ]
   },
   "properties": {
    "cadastral_number": "06:097:905:001",
    "purpose": "AGRICULTURE",
    "owner_type": "PRIVATE",
    "address_ru": "Байзакский район, окрестности с. Шайкорык, поле № 1",
    "address_kk": "Байзақ ауданы, Шайқорық а. маңы, № 1 алқап",
    "district": "Байзакский район",
    "lease_until": null,
    "seed_status": "OK",
    "seed_violation_type": null,
    "seed_deadline_days": null,
    "seed_index": 52
   }
  },
  {
   "type": "Feature",
   "geometry": {
    "type": "MultiPolygon",
    "coordinates": [
     [
      [
       [
        71.3217783,
        42.9599195
       ],
       [
        71.3191522,
        42.9574324
       ],
       [
        71.3144431,
        42.9605055
       ],
       [
        71.3168922,
        42.9628631
       ],
       [
        71.3217783,
        42.9599195
       ]
      ]
     ]
    ]
   },
   "properties": {
    "cadastral_number": "06:097:905:002",
    "purpose": "AGRICULTURE",
    "owner_type": "LEASE",
    "address_ru": "Байзакский район, окрестности с. Шайкорык, поле № 2",
    "address_kk": "Байзақ ауданы, Шайқорық а. маңы, № 2 алқап",
    "district": "Байзакский район",
    "lease_until": "2029-12-01",
    "seed_status": "UNDER_CHECK",
    "seed_violation_type": null,
    "seed_deadline_days": null,
    "seed_index": 53
   }
  },
  {
   "type": "Feature",
   "geometry": {
    "type": "MultiPolygon",
    "coordinates": [
     [
      [
       [
        71.326508,
        42.9569955
       ],
       [
        71.3244457,
        42.9544921
       ],
       [
        71.3191522,
        42.9574324
       ],
       [
        71.3217783,
        42.9599195
       ],
       [
        71.326508,
        42.9569955
       ]
      ]
     ]
    ]
   },
   "properties": {
    "cadastral_number": "06:097:905:003",
    "purpose": "AGRICULTURE",
    "owner_type": "LEASE",
    "address_ru": "Байзакский район, окрестности с. Шайкорык, поле № 3",
    "address_kk": "Байзақ ауданы, Шайқорық а. маңы, № 3 алқап",
    "district": "Байзакский район",
    "lease_until": "2034-01-10",
    "seed_status": "UNDER_CHECK",
    "seed_violation_type": null,
    "seed_deadline_days": null,
    "seed_index": 54
   }
  },
  {
   "type": "Feature",
   "geometry": {
    "type": "MultiPolygon",
    "coordinates": [
     [
      [
       [
        71.3244457,
        42.9544921
       ],
       [
        71.326508,
        42.9569955
       ],
       [
        71.3320471,
        42.9537716
       ],
       [
        71.3313488,
        42.9531174
       ],
       [
        71.3322211,
        42.9526186
       ],
       [
        71.3306544,
        42.9511976
       ],
       [
        71.3244457,
        42.9544921
       ]
      ]
     ]
    ]
   },
   "properties": {
    "cadastral_number": "06:097:905:004",
    "purpose": "AGRICULTURE",
    "owner_type": "LEASE",
    "address_ru": "Байзакский район, окрестности с. Шайкорык, поле № 4",
    "address_kk": "Байзақ ауданы, Шайқорық а. маңы, № 4 алқап",
    "district": "Байзакский район",
    "lease_until": "2031-01-23",
    "seed_status": "VIOLATION",
    "seed_violation_type": "SELF_SEIZURE",
    "seed_deadline_days": 40,
    "seed_index": 55
   }
  },
  {
   "type": "Feature",
   "geometry": {
    "type": "MultiPolygon",
    "coordinates": [
     [
      [
       [
        71.3135445,
        42.9645368
       ],
       [
        71.3180017,
        42.9688025
       ],
       [
        71.3208548,
        42.96697
       ],
       [
        71.3168922,
        42.9628631
       ],
       [
        71.3135445,
        42.9645368
       ]
      ]
     ]
    ]
   },
   "properties": {
    "cadastral_number": "06:097:905:005",
    "purpose": "AGRICULTURE",
    "owner_type": "LEASE",
    "address_ru": "Байзакский район, окрестности с. Шайкорык, поле № 5",
    "address_kk": "Байзақ ауданы, Шайқорық а. маңы, № 5 алқап",
    "district": "Байзакский район",
    "lease_until": "2032-10-06",
    "seed_status": "OK",
    "seed_violation_type": null,
    "seed_deadline_days": null,
    "seed_index": 56
   }
  },
  {
   "type": "Feature",
   "geometry": {
    "type": "MultiPolygon",
    "coordinates": [
     [
      [
       [
        71.3168922,
        42.9628631
       ],
       [
        71.3208548,
        42.96697
       ],
       [
        71.3268078,
        42.9639345
       ],
       [
        71.3217783,
        42.9599195
       ],
       [
        71.3168922,
        42.9628631
       ]
      ]
     ]
    ]
   },
   "properties": {
    "cadastral_number": "06:097:905:006",
    "purpose": "AGRICULTURE",
    "owner_type": "LEASE",
    "address_ru": "Байзакский район, окрестности с. Шайкорык, поле № 6",
    "address_kk": "Байзақ ауданы, Шайқорық а. маңы, № 6 алқап",
    "district": "Байзакский район",
    "lease_until": "2031-04-07",
    "seed_status": "OK",
    "seed_violation_type": null,
    "seed_deadline_days": null,
    "seed_index": 57
   }
  },
  {
   "type": "Feature",
   "geometry": {
    "type": "MultiPolygon",
    "coordinates": [
     [
      [
       [
        71.3217783,
        42.9599195
       ],
       [
        71.3268078,
        42.9639345
       ],
       [
        71.3292559,
        42.9622032
       ],
       [
        71.3278312,
        42.9608686
       ],
       [
        71.3295093,
        42.9599091
       ],
       [
        71.326508,
        42.9569955
       ],
       [
        71.3217783,
        42.9599195
       ]
      ]
     ]
    ]
   },
   "properties": {
    "cadastral_number": "06:097:905:007",
    "purpose": "AGRICULTURE",
    "owner_type": "LEASE",
    "address_ru": "Байзакский район, окрестности с. Шайкорык, поле № 7",
    "address_kk": "Байзақ ауданы, Шайқорық а. маңы, № 7 алқап",
    "district": "Байзакский район",
    "lease_until": "2030-10-19",
    "seed_status": "IN_REMEDIATION",
    "seed_violation_type": "SELF_SEIZURE",
    "seed_deadline_days": -2,
    "seed_index": 58
   }
  },
  {
   "type": "Feature",
   "geometry": {
    "type": "MultiPolygon",
    "coordinates": [
     [
      [
       [
        71.3307697,
        42.9611327
       ],
       [
        71.3374194,
        42.9578237
       ],
       [
        71.3339385,
        42.9542867
       ],
       [
        71.3326295,
        42.9550352
       ],
       [
        71.3315743,
        42.9540468
       ],
       [
        71.326508,
        42.9569955
       ],
       [
        71.3295093,
        42.9599091
       ],
       [
        71.32950928642519,
        42.95990910776177
       ],
       [
        71.3307697,
        42.9611327
       ]
      ]
     ]
    ]
   },
   "properties": {
    "cadastral_number": "06:097:905:008",
    "purpose": "AGRICULTURE",
    "owner_type": "LEASE",
    "address_ru": "Байзакский район, окрестности с. Шайкорык, поле № 8",
    "address_kk": "Байзақ ауданы, Шайқорық а. маңы, № 8 алқап",
    "district": "Байзакский район",
    "lease_until": "2028-07-01",
    "seed_status": "OK",
    "seed_violation_type": null,
    "seed_deadline_days": null,
    "seed_index": 59
   }
  },
  {
   "type": "Feature",
   "geometry": {
    "type": "MultiPolygon",
    "coordinates": [
     [
      [
       [
        71.3402118,
        42.9337715
       ],
       [
        71.3403743,
        42.9335627
       ],
       [
        71.3407399,
        42.9337386
       ],
       [
        71.3405908,
        42.9339376
       ],
       [
        71.3402118,
        42.9337715
       ]
      ]
     ]
    ]
   },
   "properties": {
    "cadastral_number": "06:097:906:001",
    "purpose": "IZHS",
    "owner_type": "STATE",
    "address_ru": "г. Тараз, мкр. Самал-2, ул. Толе би, 1",
    "address_kk": "Тараз қ., Самал-2 ш/а, Төле би к-сі, 1",
    "district": "Тараз, мкр. Самал-2",
    "lease_until": null,
    "seed_status": "OK",
    "seed_violation_type": null,
    "seed_deadline_days": null,
    "seed_allocation": "OFFERED"
   }
  },
  {
   "type": "Feature",
   "geometry": {
    "type": "MultiPolygon",
    "coordinates": [
     [
      [
       [
        71.3408919,
        42.9335613
       ],
       [
        71.3405204,
        42.9333924
       ],
       [
        71.3403743,
        42.9335627
       ],
       [
        71.3407399,
        42.9337386
       ],
       [
        71.3408919,
        42.9335613
       ]
      ]
     ]
    ]
   },
   "properties": {
    "cadastral_number": "06:097:906:002",
    "purpose": "IZHS",
    "owner_type": "STATE",
    "address_ru": "г. Тараз, мкр. Самал-2, ул. Толе би, 3",
    "address_kk": "Тараз қ., Самал-2 ш/а, Төле би к-сі, 3",
    "district": "Тараз, мкр. Самал-2",
    "lease_until": null,
    "seed_status": "OK",
    "seed_violation_type": null,
    "seed_deadline_days": null,
    "seed_allocation": "OFFERED"
   }
  },
  {
   "type": "Feature",
   "geometry": {
    "type": "MultiPolygon",
    "coordinates": [
     [
      [
       [
        71.3410403,
        42.9333897
       ],
       [
        71.3406685,
        42.9332201
       ],
       [
        71.3405204,
        42.9333924
       ],
       [
        71.3408919,
        42.9335613
       ],
       [
        71.3410403,
        42.9333897
       ]
      ]
     ]
    ]
   },
   "properties": {
    "cadastral_number": "06:097:906:003",
    "purpose": "IZHS",
    "owner_type": "STATE",
    "address_ru": "г. Тараз, мкр. Самал-2, ул. Толе би, 5",
    "address_kk": "Тараз қ., Самал-2 ш/а, Төле би к-сі, 5",
    "district": "Тараз, мкр. Самал-2",
    "lease_until": null,
    "seed_status": "OK",
    "seed_violation_type": null,
    "seed_deadline_days": null,
    "seed_allocation": "OFFERED"
   }
  },
  {
   "type": "Feature",
   "geometry": {
    "type": "MultiPolygon",
    "coordinates": [
     [
      [
       [
        71.341191,
        42.9332096
       ],
       [
        71.3408333,
        42.9330481
       ],
       [
        71.3406685,
        42.9332201
       ],
       [
        71.3410403,
        42.9333897
       ],
       [
        71.341191,
        42.9332096
       ]
      ]
     ]
    ]
   },
   "properties": {
    "cadastral_number": "06:097:906:004",
    "purpose": "IZHS",
    "owner_type": "STATE",
    "address_ru": "г. Тараз, мкр. Самал-2, ул. Толе би, 7",
    "address_kk": "Тараз қ., Самал-2 ш/а, Төле би к-сі, 7",
    "district": "Тараз, мкр. Самал-2",
    "lease_until": null,
    "seed_status": "OK",
    "seed_violation_type": null,
    "seed_deadline_days": null,
    "seed_allocation": "OFFERED"
   }
  },
  {
   "type": "Feature",
   "geometry": {
    "type": "MultiPolygon",
    "coordinates": [
     [
      [
       [
        71.3413476,
        42.9330381
       ],
       [
        71.3409803,
        42.9328573
       ],
       [
        71.3408333,
        42.9330481
       ],
       [
        71.341191,
        42.9332096
       ],
       [
        71.3413476,
        42.9330381
       ]
      ]
     ]
    ]
   },
   "properties": {
    "cadastral_number": "06:097:906:005",
    "purpose": "IZHS",
    "owner_type": "STATE",
    "address_ru": "г. Тараз, мкр. Самал-2, ул. Толе би, 9",
    "address_kk": "Тараз қ., Самал-2 ш/а, Төле би к-сі, 9",
    "district": "Тараз, мкр. Самал-2",
    "lease_until": null,
    "seed_status": "OK",
    "seed_violation_type": null,
    "seed_deadline_days": null,
    "seed_allocation": "OFFERED"
   }
  },
  {
   "type": "Feature",
   "geometry": {
    "type": "MultiPolygon",
    "coordinates": [
     [
      [
       [
        71.3405908,
        42.9339376
       ],
       [
        71.3409648,
        42.9341077
       ],
       [
        71.3411427,
        42.9339108
       ],
       [
        71.3407399,
        42.9337386
       ],
       [
        71.3405908,
        42.9339376
       ]
      ]
     ]
    ]
   },
   "properties": {
    "cadastral_number": "06:097:906:006",
    "purpose": "IZHS",
    "owner_type": "STATE",
    "address_ru": "г. Тараз, мкр. Самал-2, ул. Койгельды, 41",
    "address_kk": "Тараз қ., Самал-2 ш/а, Қойгелді к-сі, 41",
    "district": "Тараз, мкр. Самал-2",
    "lease_until": null,
    "seed_status": "OK",
    "seed_violation_type": null,
    "seed_deadline_days": null,
    "seed_allocation": "OFFERED"
   }
  },
  {
   "type": "Feature",
   "geometry": {
    "type": "MultiPolygon",
    "coordinates": [
     [
      [
       [
        71.3407399,
        42.9337386
       ],
       [
        71.3411427,
        42.9339108
       ],
       [
        71.3412777,
        42.9337299
       ],
       [
        71.3408919,
        42.9335613
       ],
       [
        71.3407399,
        42.9337386
       ]
      ]
     ]
    ]
   },
   "properties": {
    "cadastral_number": "06:097:906:007",
    "purpose": "IZHS",
    "owner_type": "STATE",
    "address_ru": "г. Тараз, мкр. Самал-2, ул. Койгельды, 43",
    "address_kk": "Тараз қ., Самал-2 ш/а, Қойгелді к-сі, 43",
    "district": "Тараз, мкр. Самал-2",
    "lease_until": null,
    "seed_status": "OK",
    "seed_violation_type": null,
    "seed_deadline_days": null,
    "seed_allocation": "OFFERED"
   }
  },
  {
   "type": "Feature",
   "geometry": {
    "type": "MultiPolygon",
    "coordinates": [
     [
      [
       [
        71.3408919,
        42.9335613
       ],
       [
        71.3412777,
        42.9337299
       ],
       [
        71.3414424,
        42.9335672
       ],
       [
        71.3410403,
        42.9333897
       ],
       [
        71.3408919,
        42.9335613
       ]
      ]
     ]
    ]
   },
   "properties": {
    "cadastral_number": "06:097:906:008",
    "purpose": "IZHS",
    "owner_type": "STATE",
    "address_ru": "г. Тараз, мкр. Самал-2, ул. Койгельды, 45",
    "address_kk": "Тараз қ., Самал-2 ш/а, Қойгелді к-сі, 45",
    "district": "Тараз, мкр. Самал-2",
    "lease_until": null,
    "seed_status": "OK",
    "seed_violation_type": null,
    "seed_deadline_days": null,
    "seed_allocation": "OFFERED"
   }
  },
  {
   "type": "Feature",
   "geometry": {
    "type": "MultiPolygon",
    "coordinates": [
     [
      [
       [
        71.3410403,
        42.9333897
       ],
       [
        71.3414424,
        42.9335672
       ],
       [
        71.341594,
        42.9333899
       ],
       [
        71.341191,
        42.9332096
       ],
       [
        71.3410403,
        42.9333897
       ]
      ]
     ]
    ]
   },
   "properties": {
    "cadastral_number": "06:097:906:009",
    "purpose": "IZHS",
    "owner_type": "STATE",
    "address_ru": "г. Тараз, мкр. Самал-2, ул. Койгельды, 47",
    "address_kk": "Тараз қ., Самал-2 ш/а, Қойгелді к-сі, 47",
    "district": "Тараз, мкр. Самал-2",
    "lease_until": null,
    "seed_status": "OK",
    "seed_violation_type": null,
    "seed_deadline_days": null,
    "seed_allocation": "OFFERED"
   }
  },
  {
   "type": "Feature",
   "geometry": {
    "type": "MultiPolygon",
    "coordinates": [
     [
      [
       [
        71.341191,
        42.9332096
       ],
       [
        71.341594,
        42.9333899
       ],
       [
        71.3417472,
        42.9332027
       ],
       [
        71.3413476,
        42.9330381
       ],
       [
        71.341191,
        42.9332096
       ]
      ]
     ]
    ]
   },
   "properties": {
    "cadastral_number": "06:097:906:010",
    "purpose": "IZHS",
    "owner_type": "STATE",
    "address_ru": "г. Тараз, мкр. Самал-2, ул. Койгельды, 49",
    "address_kk": "Тараз қ., Самал-2 ш/а, Қойгелді к-сі, 49",
    "district": "Тараз, мкр. Самал-2",
    "lease_until": null,
    "seed_status": "OK",
    "seed_violation_type": null,
    "seed_deadline_days": null,
    "seed_allocation": "OFFERED"
   }
  },
  {
   "type": "Feature",
   "geometry": {
    "type": "MultiPolygon",
    "coordinates": [
     [
      [
       [
        71.3409648,
        42.9341077
       ],
       [
        71.341381,
        42.9342894
       ],
       [
        71.3415302,
        42.9340968
       ],
       [
        71.3411427,
        42.9339108
       ],
       [
        71.3409648,
        42.9341077
       ]
      ]
     ]
    ]
   },
   "properties": {
    "cadastral_number": "06:097:906:011",
    "purpose": "IZHS",
    "owner_type": "STATE",
    "address_ru": "г. Тараз, мкр. Самал-2, ул. Сулейменова, 81",
    "address_kk": "Тараз қ., Самал-2 ш/а, Сүлейменов к-сі, 81",
    "district": "Тараз, мкр. Самал-2",
    "lease_until": null,
    "seed_status": "OK",
    "seed_violation_type": null,
    "seed_deadline_days": null,
    "seed_allocation": "OFFERED"
   }
  },
  {
   "type": "Feature",
   "geometry": {
    "type": "MultiPolygon",
    "coordinates": [
     [
      [
       [
        71.3411427,
        42.9339108
       ],
       [
        71.3415302,
        42.9340968
       ],
       [
        71.3416903,
        42.9339251
       ],
       [
        71.3412777,
        42.9337299
       ],
       [
        71.3411427,
        42.9339108
       ]
      ]
     ]
    ]
   },
   "properties": {
    "cadastral_number": "06:097:906:012",
    "purpose": "IZHS",
    "owner_type": "STATE",
    "address_ru": "г. Тараз, мкр. Самал-2, ул. Сулейменова, 83",
    "address_kk": "Тараз қ., Самал-2 ш/а, Сүлейменов к-сі, 83",
    "district": "Тараз, мкр. Самал-2",
    "lease_until": null,
    "seed_status": "OK",
    "seed_violation_type": null,
    "seed_deadline_days": null,
    "seed_allocation": "OFFERED"
   }
  },
  {
   "type": "Feature",
   "geometry": {
    "type": "MultiPolygon",
    "coordinates": [
     [
      [
       [
        71.3412777,
        42.9337299
       ],
       [
        71.3416903,
        42.9339251
       ],
       [
        71.3418435,
        42.9337557
       ],
       [
        71.3414424,
        42.9335672
       ],
       [
        71.3412777,
        42.9337299
       ]
      ]
     ]
    ]
   },
   "properties": {
    "cadastral_number": "06:097:906:013",
    "purpose": "IZHS",
    "owner_type": "STATE",
    "address_ru": "г. Тараз, мкр. Самал-2, ул. Сулейменова, 85",
    "address_kk": "Тараз қ., Самал-2 ш/а, Сүлейменов к-сі, 85",
    "district": "Тараз, мкр. Самал-2",
    "lease_until": null,
    "seed_status": "OK",
    "seed_violation_type": null,
    "seed_deadline_days": null,
    "seed_allocation": "OFFERED"
   }
  },
  {
   "type": "Feature",
   "geometry": {
    "type": "MultiPolygon",
    "coordinates": [
     [
      [
       [
        71.3414424,
        42.9335672
       ],
       [
        71.3418435,
        42.9337557
       ],
       [
        71.3419785,
        42.9335724
       ],
       [
        71.341594,
        42.9333899
       ],
       [
        71.3414424,
        42.9335672
       ]
      ]
     ]
    ]
   },
   "properties": {
    "cadastral_number": "06:097:906:014",
    "purpose": "IZHS",
    "owner_type": "STATE",
    "address_ru": "г. Тараз, мкр. Самал-2, ул. Сулейменова, 87",
    "address_kk": "Тараз қ., Самал-2 ш/а, Сүлейменов к-сі, 87",
    "district": "Тараз, мкр. Самал-2",
    "lease_until": null,
    "seed_status": "OK",
    "seed_violation_type": null,
    "seed_deadline_days": null,
    "seed_allocation": "OFFERED"
   }
  },
  {
   "type": "Feature",
   "geometry": {
    "type": "MultiPolygon",
    "coordinates": [
     [
      [
       [
        71.341594,
        42.9333899
       ],
       [
        71.3419785,
        42.9335724
       ],
       [
        71.3421448,
        42.9333889
       ],
       [
        71.3417472,
        42.9332027
       ],
       [
        71.341594,
        42.9333899
       ]
      ]
     ]
    ]
   },
   "properties": {
    "cadastral_number": "06:097:906:015",
    "purpose": "IZHS",
    "owner_type": "STATE",
    "address_ru": "г. Тараз, мкр. Самал-2, ул. Сулейменова, 89",
    "address_kk": "Тараз қ., Самал-2 ш/а, Сүлейменов к-сі, 89",
    "district": "Тараз, мкр. Самал-2",
    "lease_until": null,
    "seed_status": "OK",
    "seed_violation_type": null,
    "seed_deadline_days": null,
    "seed_allocation": "OFFERED"
   }
  },
  {
   "type": "Feature",
   "geometry": {
    "type": "MultiPolygon",
    "coordinates": [
     [
      [
       [
        71.2481393,
        42.9932416
       ],
       [
        71.2514684,
        42.99361
       ],
       [
        71.2511608,
        42.9957716
       ],
       [
        71.2480385,
        42.9955645
       ],
       [
        71.2481393,
        42.9932416
       ]
      ]
     ]
    ]
   },
   "properties": {
    "cadastral_number": "06:097:907:001",
    "purpose": "AGRICULTURE",
    "owner_type": "STATE",
    "address_ru": "Байзакский район, окрестности с. Бурыл, поле № 1",
    "address_kk": "Байзақ ауданы, Бурыл а. маңы, № 1 алқап",
    "district": "Байзакский район",
    "lease_until": null,
    "seed_status": "OK",
    "seed_violation_type": null,
    "seed_deadline_days": null,
    "seed_allocation": "OFFERED"
   }
  },
  {
   "type": "Feature",
   "geometry": {
    "type": "MultiPolygon",
    "coordinates": [
     [
      [
       [
        71.254649,
        42.9961537
       ],
       [
        71.2548377,
        42.9938788
       ],
       [
        71.2514684,
        42.99361
       ],
       [
        71.2511608,
        42.9957716
       ],
       [
        71.254649,
        42.9961537
       ]
      ]
     ]
    ]
   },
   "properties": {
    "cadastral_number": "06:097:907:002",
    "purpose": "AGRICULTURE",
    "owner_type": "STATE",
    "address_ru": "Байзакский район, окрестности с. Бурыл, поле № 2",
    "address_kk": "Байзақ ауданы, Бурыл а. маңы, № 2 алқап",
    "district": "Байзакский район",
    "lease_until": null,
    "seed_status": "OK",
    "seed_violation_type": null,
    "seed_deadline_days": null,
    "seed_allocation": "OFFERED"
   }
  },
  {
   "type": "Feature",
   "geometry": {
    "type": "MultiPolygon",
    "coordinates": [
     [
      [
       [
        71.2584798,
        42.9964408
       ],
       [
        71.2585531,
        42.9941229
       ],
       [
        71.2548377,
        42.9938788
       ],
       [
        71.254649,
        42.9961537
       ],
       [
        71.2584798,
        42.9964408
       ]
      ]
     ]
    ]
   },
   "properties": {
    "cadastral_number": "06:097:907:003",
    "purpose": "AGRICULTURE",
    "owner_type": "STATE",
    "address_ru": "Байзакский район, окрестности с. Бурыл, поле № 3",
    "address_kk": "Байзақ ауданы, Бурыл а. маңы, № 3 алқап",
    "district": "Байзакский район",
    "lease_until": null,
    "seed_status": "OK",
    "seed_violation_type": null,
    "seed_deadline_days": null,
    "seed_allocation": "OFFERED"
   }
  },
  {
   "type": "Feature",
   "geometry": {
    "type": "MultiPolygon",
    "coordinates": [
     [
      [
       [
        71.2480385,
        42.9955645
       ],
       [
        71.2477977,
        42.997635
       ],
       [
        71.2507962,
        42.9978555
       ],
       [
        71.2511608,
        42.9957716
       ],
       [
        71.2480385,
        42.9955645
       ]
      ]
     ]
    ]
   },
   "properties": {
    "cadastral_number": "06:097:907:004",
    "purpose": "AGRICULTURE",
    "owner_type": "STATE",
    "address_ru": "Байзакский район, окрестности с. Бурыл, поле № 4",
    "address_kk": "Байзақ ауданы, Бурыл а. маңы, № 4 алқап",
    "district": "Байзакский район",
    "lease_until": null,
    "seed_status": "OK",
    "seed_violation_type": null,
    "seed_deadline_days": null,
    "seed_allocation": "OFFERED"
   }
  },
  {
   "type": "Feature",
   "geometry": {
    "type": "MultiPolygon",
    "coordinates": [
     [
      [
       [
        71.2511608,
        42.9957716
       ],
       [
        71.2507962,
        42.9978555
       ],
       [
        71.2544826,
        42.9980204
       ],
       [
        71.254649,
        42.9961537
       ],
       [
        71.2511608,
        42.9957716
       ]
      ]
     ]
    ]
   },
   "properties": {
    "cadastral_number": "06:097:907:005",
    "purpose": "AGRICULTURE",
    "owner_type": "STATE",
    "address_ru": "Байзакский район, окрестности с. Бурыл, поле № 5",
    "address_kk": "Байзақ ауданы, Бурыл а. маңы, № 5 алқап",
    "district": "Байзакский район",
    "lease_until": null,
    "seed_status": "OK",
    "seed_violation_type": null,
    "seed_deadline_days": null,
    "seed_allocation": "OFFERED"
   }
  },
  {
   "type": "Feature",
   "geometry": {
    "type": "MultiPolygon",
    "coordinates": [
     [
      [
       [
        71.254649,
        42.9961537
       ],
       [
        71.2544826,
        42.9980204
       ],
       [
        71.2581019,
        42.9982721
       ],
       [
        71.2584798,
        42.9964408
       ],
       [
        71.254649,
        42.9961537
       ]
      ]
     ]
    ]
   },
   "properties": {
    "cadastral_number": "06:097:907:006",
    "purpose": "AGRICULTURE",
    "owner_type": "STATE",
    "address_ru": "Байзакский район, окрестности с. Бурыл, поле № 6",
    "address_kk": "Байзақ ауданы, Бурыл а. маңы, № 6 алқап",
    "district": "Байзакский район",
    "lease_until": null,
    "seed_status": "OK",
    "seed_violation_type": null,
    "seed_deadline_days": null,
    "seed_allocation": "OFFERED"
   }
  }
 ]
}
